{
  "norad_id": 62333,
  "name": "PIESAT-2 09",
  "history": [
    {
      "epoch": "2026-03-26T19:01:23.294208",
      "apogee_km": 526.8557121191516,
      "perigee_km": 524.5727465946284,
      "latitude_deg": 35.23589789732995,
      "longitude_deg": -62.60745087987743,
      "semi_major_axis_km": 6903.85122935689,
      "eccentricity": 0.00016534,
      "inclination_deg": 97.526,
      "raan_deg": 34.3962,
      "arg_perigee_deg": 89.9142,
      "mean_anomaly_deg": 270.2279,
      "mean_motion_rev_day": 15.13441455
    }
  ]
}